{
  "norad_id": 63949,
  "name": "STARLINK-33993",
  "history": [
    {
      "epoch": "2026-03-28T20:00:01.999872",
      "apogee_km": 574.579477330898,
      "perigee_km": 569.7419311228032,
      "latitude_deg": 11.8318818174531,
      "longitude_deg": -65.09777792007662,
      "semi_major_axis_km": 6950.29770422685,
      "eccentricity": 0.00034801,
      "inclination_deg": 70.0005,
      "raan_deg": 226.0181,
      "arg_perigee_deg": 274.8895,
      "mean_anomaly_deg": 90.9898,
      "mean_motion_rev_day": 14.98296107
    },
    {
      "epoch": "2026-03-29T02:23:02.780736",
      "apogee_km": 579.1069730927893,
      "perigee_km": 566.1951891532954,
      "latitude_deg": -67.14041025330627,
      "longitude_deg": -39.5635769602377,
      "semi_major_axis_km": 6950.788081123042,
      "eccentricity": 0.0009288,
      "inclination_deg": 70.0006,
      "raan_deg": 225.3475,
      "arg_perigee_deg": 253.453,
      "mean_anomaly_deg": 106.5609,
      "mean_motion_rev_day": 14.98137553
    }
  ]
}